{"type": "FeatureCollection", "features": [{"type": "Feature", "geometry": {"type": "Point", "coordinates": [-70.575775, -33.60665]}, "properties": {"amenity": "fire_station", "name": "Cuartel General del Cuerpo de Bomberos de Puente Alto"}}, {"type": "Feature", "geometry": {"type": "Point", "coordinates": [-70.514631, -33.364866]}, "properties": {"amenity": "fire_station", "name": "Decimonovena Compa\u00f1\u00eda del Cuerpo de Bomberos de Santiago"}}, {"type": "Feature", "geometry": {"type": "Point", "coordinates": [-70.652489, -33.492366]}, "properties": {"amenity": "fire_station", "name": "Tercera Compa\u00f1\u00eda del Cuerpo de Bomberos Metropolitano Sur", "operator": "Cuerpo de Bomberos Metropolitano Sur"}}, {"type": "Feature", "geometry": {"type": "Point", "coordinates": [-70.775699, -33.533574]}, "properties": {"addr:housenumber": "1575", "addr:street": "Rene Olivares Becerra", "amenity": "fire_station", "name": "Sexta Compa\u00f1\u00eda del Cuerpo de Bomberos de Maip\u00fa"}}, {"type": "Feature", "geometry": {"type": "Point", "coordinates": [-70.747074, -33.813563]}, "properties": {"addr:street": "Avenida Presidente Prieto 380", "amenity": "fire_station", "name": "Primera Compa\u00f1\u00eda del Cuerpo de Bomberos de Paine"}}, {"type": "Feature", "geometry": {"type": "Point", "coordinates": [-70.643216, -33.833235]}, "properties": {"addr:street": "Carlo de Gavardo Prohens", "amenity": "fire_station", "name": "Tercera Compa\u00f1\u00eda del Cuerpo de Bomberos de Paine"}}, {"type": "Feature", "geometry": {"type": "Point", "coordinates": [-70.655742, -33.274854]}, "properties": {"amenity": "fire_station", "name": "Quinta Compa\u00f1\u00eda del Cuerpo de Bomberos de Colina Lampa"}}, {"type": "Feature", "geometry": {"type": "Point", "coordinates": [-70.880137, -33.874673]}, "properties": {"addr:street": "Ruta G-54 12822", "amenity": "fire_station", "name": "Cuarta Compa\u00f1\u00eda del Cuerpo de Bomberos de Paine"}}, {"type": "Feature", "geometry": {"type": "Point", "coordinates": [-70.899315, -33.608047]}, "properties": {"amenity": "fire_station", "name": "Primera Compa\u00f1\u00eda del Cuerpo de Bomberos de Pe\u00f1aflor"}}, {"type": "Feature", "geometry": {"type": "Point", "coordinates": [-70.795591, -33.564355]}, "properties": {"amenity": "fire_station", "name": "Quinta Compa\u00f1\u00eda del Cuerpo de Bomberos de Pe\u00f1aflor"}}, {"type": "Feature", "geometry": {"type": "Point", "coordinates": [-70.773098, -33.545717]}, "properties": {"amenity": "fire_station", "name": "Cuarta Compa\u00f1\u00eda del Cuerpo de Bomberos de Maip\u00fa", "source": "http://www.bomberosmaipu.cl/?page_id=70"}}, {"type": "Feature", "geometry": {"type": "Point", "coordinates": [-71.151224, -33.650517]}, "properties": {"amenity": "fire_station", "name": "Cuarta Compa\u00f1\u00eda del Cuerpo de Bomberos de Melipilla"}}, {"type": "Feature", "geometry": {"type": "Point", "coordinates": [-70.81521, -33.568962]}, "properties": {"amenity": "fire_station", "name": "Cuarta Compa\u00f1\u00eda del Cuerpo de Bomberos de Pe\u00f1aflor"}}, {"type": "Feature", "geometry": {"type": "Point", "coordinates": [-70.938513, -33.670758]}, "properties": {"amenity": "fire_station", "name": "Bomberos Talagante"}}, {"type": "Feature", "geometry": {"type": "Point", "coordinates": [-70.659543, -33.517571]}, "properties": {"addr:housenumber": "15", "addr:street": "Mohamed Bathich Malek", "amenity": "fire_station", "name": "Cuarta Compa\u00f1\u00eda del Cuerpo de Bomberos Metropolitano Sur"}}, {"type": "Feature", "geometry": {"type": "Point", "coordinates": [-70.667843, -33.449802]}, "properties": {"amenity": "fire_station", "name": "Und\u00e9cima Compa\u00f1\u00eda del Cuerpo de Bomberos de Santiago", "source": "Reconocimiento cartogr\u00e1fico 2016 por KG."}}, {"type": "Feature", "geometry": {"type": "Point", "coordinates": [-70.739344, -33.731468]}, "properties": {"addr:city": "Buin", "addr:housenumber": "275", "addr:street": "Condell", "amenity": "fire_station", "name": "Primera Compa\u00f1\u00eda del Cuerpo de Bomberos de Buin"}}, {"type": "Feature", "geometry": {"type": "Point", "coordinates": [-70.737328, -33.762814]}, "properties": {"addr:city": "Buin", "addr:housenumber": "428", "addr:street": "Hermanos Carrera", "amenity": "fire_station", "name": "Cuarta Compa\u00f1\u00eda del Cuerpo de Bomberos de Buin"}}, {"type": "Feature", "geometry": {"type": "Point", "coordinates": [-70.643187, -33.437265]}, "properties": {"addr:city": "Santiago", "addr:housenumber": "411", "addr:street": "Jos\u00e9 Miguel de la Barra", "amenity": "fire_station", "check_date": "2024-09-25", "name": "Primera Compa\u00f1\u00eda del Cuerpo de Bomberos de Santiago"}}, {"type": "Feature", "geometry": {"type": "Point", "coordinates": [-70.680139, -33.570755]}, "properties": {"addr:city": "El Bosque", "addr:country": "CL", "addr:street": "Avenida Central", "amenity": "fire_station", "name": "Cuarta Compa\u00f1\u00eda del Cuerpo de Bomberos de San Bernardo", "operator": "Bomba Chile"}}, {"type": "Feature", "geometry": {"type": "Point", "coordinates": [-70.704527, -33.595048]}, "properties": {"addr:city": "San Bernardo", "addr:street": "Ram\u00f3n Freire", "amenity": "fire_station", "name": "Segunda Compa\u00f1\u00eda del Cuerpo de Bomberos de San Bernardo"}}, {"type": "Feature", "geometry": {"type": "Point", "coordinates": [-70.647458, -33.432657]}, "properties": {"amenity": "fire_station", "name": "Segunda Compa\u00f1\u00eda del Cuerpo de Bomberos de Santiago"}}, {"type": "Feature", "geometry": {"type": "Point", "coordinates": [-70.704021, -33.594822]}, "properties": {"addr:city": "San Bernardo", "addr:housenumber": "459", "addr:street": "Avenida Covadonga", "amenity": "fire_station", "name": "Central de Alarmas de Bomberos de San Bernardo", "name:en": "San Bernardo Fire Station", "opening_hours": "24/7", "phone": "+56 22 859 2594"}}, {"type": "Feature", "geometry": {"type": "Point", "coordinates": [-70.658341, -33.436938]}, "properties": {"addr:housenumber": "1495", "addr:street": "Santo Domingo", "amenity": "fire_station", "name": "Cuarta Compa\u00f1\u00eda del Cuerpo de Bomberos de Santiago"}}, {"type": "Feature", "geometry": {"type": "Point", "coordinates": [-71.133336, -33.403906]}, "properties": {"amenity": "fire_station", "name": "Primera Compa\u00f1\u00eda del Cuerpo de Bomberos de Curacav\u00ed"}}, {"type": "Feature", "geometry": {"type": "Point", "coordinates": [-70.707941, -33.638912]}, "properties": {"addr:city": "San Bernardo", "addr:street": "Avenida Portales", "amenity": "fire_station", "name": "Quinta Compa\u00f1\u00eda de Cuerpo de Bomberos de San Bernardo", "name:en": "Fifth Company of San Bernardo Fire Brigades", "name:es": "Quinta Compa\u00f1\u00eda de Cuerpo de Bomberos de San Bernardo"}}, {"type": "Feature", "geometry": {"type": "Point", "coordinates": [-71.195637, -33.571084]}, "properties": {"addr:city": "Bollenar", "addr:housenumber": "997", "addr:street": "Anselmo Alarc\u00f3n", "amenity": "fire_station", "name": "Quinta Compa\u00f1\u00eda del Cuerpo de Bomberos de Melipilla"}}, {"type": "Feature", "geometry": {"type": "Point", "coordinates": [-70.757614, -33.631572]}, "properties": {"addr:city": "Calera de Tango", "addr:street": "Avenida Calera de Tango", "amenity": "fire_station", "check_date": "2024-09-25", "name": "Tercera Compa\u00f1\u00eda del Cuerpo de Bomberos del Maipo"}}, {"type": "Feature", "geometry": {"type": "Point", "coordinates": [-70.650973, -33.436253]}, "properties": {"addr:city": "Santiago", "addr:country": "CL", "addr:housenumber": "978", "addr:street": "Santo Domingo", "amenity": "fire_station", "email": "contacto.mubo@cbs.cl", "name": "Museo de Bomberos de Santiago (MUBO)", "opening_hours": "Tu-Sa 10:00-18:00", "tourism": "museum", "website": "https://mubo.cl/", "wikidata": "Q76824234", "wikimedia_commons": "Category:Museo de Bomberos de Santiago", "wikipedia": "es:Museo de Bomberos de Santiago"}}, {"type": "Feature", "geometry": {"type": "Point", "coordinates": [-70.74846, -33.470192]}, "properties": {"addr:city": "Maip\u00fa", "addr:street": "Avenida El Descanso", "amenity": "fire_station", "name": "Septima Compa\u00f1\u00eda del Cuerpo de Bomberos de Maip\u00fa"}}, {"type": "Feature", "geometry": {"type": "Point", "coordinates": [-71.560378, -33.94803]}, "properties": {"addr:street": "Tercera Compa\u00f1\u00eda del Cuerpo de Bomberos de San Pedro", "amenity": "fire_station", "name": "Tercera Compa\u00f1\u00eda del Cuerpo de Bomberos de San Pedro de Melipilla"}}, {"type": "Feature", "geometry": {"type": "Point", "coordinates": [-70.351936, -33.638464]}, "properties": {"amenity": "fire_station", "name": "Primera Compa\u00f1ia del Cuerpo de Bomberos de San Jose de Maipo"}}, {"type": "Feature", "geometry": {"type": "Point", "coordinates": [-70.738433, -33.803183]}, "properties": {"amenity": "fire_station", "name": "Cuartel General del Cuerpo Bomberos de Paine", "operator": "Cuerpo bomberos de Paine"}}, {"type": "Feature", "geometry": {"type": "Point", "coordinates": [-70.623083, -33.414618]}, "properties": {"addr:city": "Recoleta", "addr:street": "Zona Operativa ParqueMet", "amenity": "fire_station", "name": "Brigada Roble 18 Conaf", "operator": "Corporaci\u00f3n Nacional Forestal"}}, {"type": "Feature", "geometry": {"type": "Point", "coordinates": [-70.672286, -33.460451]}, "properties": {"amenity": "fire_station", "name": "Decimos\u00e9ptima Compa\u00f1\u00eda del Cuerpo de Bomberos de Santiago"}}, {"type": "Feature", "geometry": {"type": "Point", "coordinates": [-70.351664, -33.645736]}, "properties": {"amenity": "fire_station", "name": "Cuartel General del Cuerpo de Bomberos de San Jos\u00e9 de Maipo"}}, {"type": "Feature", "geometry": {"type": "Point", "coordinates": [-70.335539, -33.694042]}, "properties": {"amenity": "fire_station", "name": "Segunda Compa\u00f1\u00eda del Cuerpo de Bomberos de San Jos\u00e9 de Maipo"}}, {"type": "Feature", "geometry": {"type": "Point", "coordinates": [-70.450266, -33.577172]}, "properties": {"amenity": "fire_station", "name": "Cuarta Compa\u00f1ia del Cuerpo de Bomberos de San Jose de Maipo"}}, {"type": "Feature", "geometry": {"type": "Point", "coordinates": [-70.486138, -33.590938]}, "properties": {"amenity": "fire_station", "name": "Tercera Compa\u00f1ia del Cuerpo de Bomberos de San Jose de Maipo"}}, {"type": "Feature", "geometry": {"type": "Point", "coordinates": [-70.899334, -33.608098]}, "properties": {"amenity": "fire_station", "name": "Cuartel General del Cuerpo de Bomberos de Pe\u00f1aflor"}}, {"type": "Feature", "geometry": {"type": "Point", "coordinates": [-70.902262, -33.605085]}, "properties": {"amenity": "fire_station", "name": "Segunda Compa\u00f1\u00eda del Cuerpo de Bomberos de Pe\u00f1aflor"}}, {"type": "Feature", "geometry": {"type": "Point", "coordinates": [-70.708328, -33.511383]}, "properties": {"amenity": "fire_station", "name": "Novena Compa\u00f1\u00eda del Cuerpo de Bomberos de Maip\u00fa"}}, {"type": "Feature", "geometry": {"type": "Point", "coordinates": [-70.678032, -33.518953]}, "properties": {"amenity": "fire_station", "name": "Octava Compa\u00f1\u00eda del Cuerpo de Bomberos Metropolitano Sur"}}, {"type": "Feature", "geometry": {"type": "Point", "coordinates": [-70.769538, -33.292923]}, "properties": {"amenity": "fire_station", "name": "CONAF Brigada Roble 9"}}, {"type": "Feature", "geometry": {"type": "Point", "coordinates": [-70.743397, -33.714024]}, "properties": {"amenity": "fire_station", "name": "Sexta Compa\u00f1\u00eda del Cuerpo de Bomberos de Buin"}}, {"type": "Feature", "geometry": {"type": "Point", "coordinates": [-70.763352, -33.63255]}, "properties": {"amenity": "fire_station", "name": "D\u00e9cima Compa\u00f1\u00eda del Cuerpo de Bomberos de San Bernardo"}}, {"type": "Feature", "geometry": {"type": "Point", "coordinates": [-71.365069, -33.837008]}, "properties": {"amenity": "fire_station", "name": "Sexta Compa\u00f1\u00eda del Cuerpo de Bomberos de Melipilla"}}, {"type": "Feature", "geometry": {"type": "Point", "coordinates": [-71.329701, -33.761337]}, "properties": {"amenity": "fire_station", "name": "S\u00e9ptima Compa\u00f1\u00eda del Cuerpo de Bomberos de Melipilla"}}, {"type": "Feature", "geometry": {"type": "Point", "coordinates": [-71.486216, -33.862803]}, "properties": {"addr:street": "Ruta de la Fruta H-66, KM 103,6", "amenity": "fire_station", "name": "Segunda Compa\u00f1\u00eda del Cuerpo de Bomberos de San Pedro de Melipilla"}}, {"type": "Feature", "geometry": {"type": "Point", "coordinates": [-70.894014, -33.399739]}, "properties": {"amenity": "fire_station", "name": "Novena Compa\u00f1\u00eda del Cuerpo de Bomberos de Quinta Normal"}}, {"type": "Feature", "geometry": {"type": "Point", "coordinates": [-70.992547, -33.507452]}, "properties": {"addr:street": "Camino Cuesta Barriga", "amenity": "fire_station", "name": "Segunda Compa\u00f1\u00eda del Cuerpo de Bomberos de Curacav\u00ed"}}, {"type": "Feature", "geometry": {"type": "Point", "coordinates": [-71.123074, -33.396618]}, "properties": {"addr:street": "Las Araucarias 437", "amenity": "fire_station", "name": "Tercera Compa\u00f1\u00eda del Cuerpo de Bomberos de Curacav\u00ed"}}, {"type": "Feature", "geometry": {"type": "Point", "coordinates": [-71.1147, -33.513832]}, "properties": {"addr:street": "Avenida Francisco Costabal Eche\u00f1ique 221", "amenity": "fire_station", "name": "Segunda Compa\u00f1\u00eda del Cuerpo de Bomberos de Maria Pinto"}}, {"type": "Feature", "geometry": {"type": "Point", "coordinates": [-70.693808, -33.533085]}, "properties": {"addr:street": "Astaburuaga 9360", "amenity": "fire_station", "name": "Segunda Compa\u00f1\u00eda del Cuerpo de Bomberos Metropolitano Sur"}}, {"type": "Feature", "geometry": {"type": "Point", "coordinates": [-70.929775, -33.0824]}, "properties": {"addr:housenumber": "57", "addr:street": "Emilio Valle", "amenity": "fire_station", "name": "Cuartel General del Cuerpo de Bomberos de Til Til", "operator": "Cuerpo de Bomberos de Til Til"}}, {"type": "Feature", "geometry": {"type": "Point", "coordinates": [-71.10173, -34.032294]}, "properties": {"addr:street": "21 de Mayo 300-398", "amenity": "fire_station", "name": "Primera Compa\u00f1\u00eda del Cuerpo de Bomberos de Villa Alhu\u00e9"}}, {"type": "Feature", "geometry": {"type": "Point", "coordinates": [-71.0246, -33.68703]}, "properties": {"addr:city": "El Monte", "addr:housenumber": "1290", "addr:street": "Avenida Los Libertadores", "amenity": "fire_station", "name": "Segunda Compa\u00f1\u00eda del Cuerpo de Bomberos de El Monte"}}, {"type": "Feature", "geometry": {"type": "Point", "coordinates": [-70.981974, -33.681374]}, "properties": {"amenity": "fire_station", "name": "Primera Compa\u00f1\u00eda del Cuerpo de Bomberos de El Monte"}}, {"type": "Feature", "geometry": {"type": "Point", "coordinates": [-71.21722, -34.031123]}, "properties": {"addr:street": "Ruta G-92-H", "amenity": "fire_station", "name": "Segunda Compa\u00f1\u00eda del Cuerpo de Bomberos de Villa Alhu\u00e9", "operator": "Cuerpo de Bomberos de Villa Alhu\u00e9"}}, {"type": "Feature", "geometry": {"type": "Point", "coordinates": [-71.018044, -34.034293]}, "properties": {"amenity": "fire_station", "name": "Tercera Compa\u00f1\u00eda del Cuerpo de Bomberos de Villa Alhu\u00e9"}}, {"type": "Feature", "geometry": {"type": "Point", "coordinates": [-71.066743, -33.984066]}, "properties": {"amenity": "fire_station", "name": "Cuarta Compa\u00f1\u00eda del Cuerpo de Bomberos de Villa Alhu\u00e9"}}, {"type": "Feature", "geometry": {"type": "Point", "coordinates": [-70.907441, -33.537231]}, "properties": {"amenity": "fire_station", "name": "Sexta Compa\u00f1\u00eda del Cuerpo de Bomberos de Pe\u00f1aflor"}}, {"type": "Feature", "geometry": {"type": "Point", "coordinates": [-71.45451, -33.981595]}, "properties": {"amenity": "fire_station", "name": "Cuarta Compa\u00f1\u00eda del Cuerpo de Bomberos de San Pedro de Melipilla"}}, {"type": "Feature", "geometry": {"type": "Point", "coordinates": [-70.636068, -33.521927]}, "properties": {"addr:city": "La Granja", "addr:housenumber": "6590", "addr:street": "Avenida Santa Rosa", "amenity": "fire_station", "name": "Primera Compa\u00f1\u00eda del Cuerpo de Bomberos de La Granja", "operator": "Cuerpo de Bomberos de La Granja"}}, {"type": "Feature", "geometry": {"type": "Point", "coordinates": [-70.635577, -33.534902]}, "properties": {"addr:city": "San Ram\u00f3n", "addr:housenumber": "2083", "addr:street": "Venezuela", "amenity": "fire_station", "name": "Cuarta Compa\u00f1\u00eda del Cuerpo de Bomberos de La Granja", "operator": "Cuerpo de Bomberos de La Granja"}}, {"type": "Feature", "geometry": {"type": "Point", "coordinates": [-70.635331, -33.533063]}, "properties": {"addr:city": "San Ram\u00f3n", "addr:housenumber": "2095", "addr:street": "Argentina", "amenity": "fire_station", "name": "Cuartel General del Cuerpo de Bomberos de La Granja", "operator": "Cuerpo de Bomberos de La Granja"}}]}